1 45379U 20019V   23025.83634798  .00003812  00000-0  27469-3 0  9995
2 45379  53.0543 239.1297 0001059  99.2140 260.8968 15.06392209158081
1 45379U 20019V   23026.03538954  .00005564  00000-0  39214-3 0  9992
2 45379  53.0536 238.2359 0001098  97.2286 262.8828 15.06399527158115
1 45379U 20019V   23026.83154250  .00004884  00000-0  34641-3 0  9996
2 45379  53.0537 234.6617 0001066  94.3650 265.7461 15.06413770158236
1 45379U 20019V   23027.36231576  .00001862  00000-0  14380-3 0  9993
2 45379  53.0529 232.2797 0001051  96.3368 263.7741 15.06408220158314
1 45379U 20019V   23027.36231576  .00001862  00000-0  14380-3 0  9993
2 45379  53.0529 232.2797 0001051  96.3368 263.7741 15.06408220158314
1 45379U 20019V   23027.82674713 -.00000545  00000-0 -17724-4 0  9993
2 45379  53.0537 230.1953 0001066 103.6010 256.5098 15.06403024158385
1 45379U 20019V   23027.82674855  .00000071  00000-0  23621-4 0  9995
2 45379  53.0539 230.1953 0000914  83.7710 276.3383 15.06400082158381
1 45379U 20019V   23028.55656098 -.00001057  00000-0 -52056-4 0  9996
2 45379  53.0537 226.9185 0001179  90.0575 270.0549 15.06401859158493
1 45379U 20019V   23028.82194742 -.00000959  00000-0 -45492-4 0  9995
2 45379  53.0537 225.7273 0001169  89.6895 270.4228 15.06400706158539
1 45379U 20019V   23028.95463976 -.00000801  00000-0 -34908-4 0  9993
2 45379  53.0536 225.1314 0001185  89.6254 270.4871 15.06401719158556
1 45379U 20019V   23029.88349398  .00000531  00000-0  54546-4 0  9995
2 45379  53.0538 220.9609 0001208  89.9765 270.1362 15.06398542158690
1 45379U 20019V   23030.21523018  .00000356  00000-0  42772-4 0  9990
2 45379  53.0536 219.4714 0001201  89.3287 270.7840 15.06396116158742
1 45379U 20019V   23030.54696672  .00000195  00000-0  32000-4 0  9997
2 45379  53.0536 217.9822 0001208  89.9976 270.1152 15.06393663158792
1 45379U 20019V   23030.87869976  .00000199  00000-0  32244-4 0  9996
2 45379  53.0539 216.4929 0001225  89.2200 270.8930 15.06396248158848
1 45379U 20019V   23031.47582180  .00000168  00000-0  30141-4 0  9992
2 45379  53.0538 213.8121 0001201  90.1347 269.9779 15.06396434158936
1 45379U 20019V   23031.54216902 -.00000188  00000-0  62519-5 0  9994
2 45379  53.0539 213.5142 0001192  90.4525 269.6601 15.06397124158946
1 45379U 20019V   23031.87390077  .00000138  00000-0  28157-4 0  9999
2 45379  53.0539 212.0250 0001207  90.4015 269.7112 15.06399689158992
